FENGYUN 3D              
1 43010U 17072A   26194.22298360  .00000009  00000+0  26246-4 0  9991
2 43010  99.0134 169.1175 0001686  18.9543 341.1694 14.19744100448686
NOAA 20 (JPSS-1)        
1 43013U 17073A   26194.15173943  .00000018  00000+0  29432-4 0  9996
2 43013  98.7773 133.3842 0001320 126.2782 233.8516 14.19516218448150
GOES 17                 
1 43226U 18022A   26194.11557993 -.00000185  00000+0  00000+0 0  9995
2 43226   1.0012  85.2870 0000535  84.5056  73.3198  1.00271367 30689
SENTINEL-3B             
1 43437U 18039A   26193.78710032  .00000004  00000+0  19507-4 0  9990
2 43437  98.6237 260.9506 0001083 119.4324 240.6964 14.26735933427773
FENGYUN 2H              
1 43491U 18050A   26194.07764412 -.00000132  00000+0  00000+0 0  9993
2 43491   3.0943  78.7664 0002311 133.2490 186.0612  1.00267338 29699
METOP-C                 
1 43689U 18087A   26194.18170985  .00000053  00000+0  43911-4 0  9994
2 43689  98.6631 253.3084 0002211  96.4514 263.6916 14.21518719398524
GEO-KOMPSAT-2A          
1 43823U 18100A   26193.94479521 -.00000345  00000+0  00000+0 0  9993
2 43823   0.0260 112.9792 0001930 349.0200 297.2218  1.00270807 27883
METEOR-M2 2             
1 44387U 19038A   26194.16544251  .00000179  00000+0  97402-4 0  9999
2 44387  98.9154 181.8357 0000874   7.8355 352.2837 14.24372994364990
ARKTIKA-M 1             
1 47719U 21016A   26188.42887598 -.00000257  00000+0  00000+0 0  9997
2 47719  63.2524  54.6812 7295086 270.0380  14.5466  2.00614486 39194
FENGYUN 3E              
1 49008U 21062A   26194.20397384  .00000232  00000+0  12994-3 0  9994
2 49008  98.7498 197.3221 0002324  43.5343 316.6016 14.19906928260275
GOES 18                 
1 51850U 22021A   26194.03484329  .00000095  00000+0  00000+0 0  9993
2 51850   0.0164 127.5086 0000603  67.6267 331.3316  1.00273053  6854
NOAA 21 (JPSS-2)        
1 54234U 22150A   26194.11358479 -.00000012  00000+0  14899-4 0  9996
2 54234  98.7061 132.4674 0002786 108.3694 251.7785 14.19540833190229
METEOSAT-12 (MTG-I1)    
1 54743U 22170C   26194.17753097 -.00000011  00000+0  00000+0 0  9997
2 54743   0.7230  19.3284 0003768  82.4841 252.8642  1.00267223 13236
TIANMU-1 03             
1 55973U 23039A   26194.17130997  .00010590  00000+0  20440-3 0  9992
2 55973  97.5234   9.1731 0002763  32.6158 327.5262 15.48006921184854
TIANMU-1 04             
1 55974U 23039B   26194.21516594  .00010277  00000+0  19417-3 0  9993
2 55974  97.5170   8.3745 0003206  20.3826 339.7551 15.48629889184871
TIANMU-1 05             
1 55975U 23039C   26194.21799575  .00010071  00000+0  19498-3 0  9997
2 55975  97.5216   8.8268 0003148  50.6394 309.5134 15.47930951184842
TIANMU-1 06             
1 55976U 23039D   26194.22021883  .00011276  00000+0  21359-3 0  9996
2 55976  97.5223   9.4914 0003250  42.5398 317.6103 15.48528618184877
FENGYUN 3G              
1 56232U 23055A   26194.16190291  .00015696  00000+0  24679-3 0  9991
2 56232  49.9904 212.0695 0007114  46.6453 313.5106 15.53728665184045
METEOR-M2 3             
1 57166U 23091A   26194.16576201 -.00000017  00000+0  11427-4 0  9997
2 57166  98.6069 248.6107 0005145  94.8563 265.3203 14.24048799158219
TIANMU-1 07             
1 57399U 23101A   26194.19617951  .00003631  00000+0  12721-3 0  9999
2 57399  97.2582 244.2696 0003856  68.9386 291.2267 15.30101013165627
TIANMU-1 08             
1 57400U 23101B   26194.16275116  .00004096  00000+0  14311-3 0  9995
2 57400  97.2571 244.0039 0004796  51.8587 308.3085 15.30105979165617
TIANMU-1 09             
1 57401U 23101C   26194.14556662  .00004185  00000+0  14600-3 0  9992
2 57401  97.2529 243.3895 0004486  69.3794 290.7927 15.30146197165619
TIANMU-1 10             
1 57402U 23101D   26194.17907414  .00003992  00000+0  13948-3 0  9990
2 57402  97.2609 244.4993 0005799  59.9108 300.2707 15.30119650165619
FENGYUN 3F              
1 57490U 23111A   26194.18726579  .00000005  00000+0  22871-4 0  9998
2 57490  98.6826 263.7102 0001310  77.2007 282.9316 14.19943225152554
ARKTIKA-M 2             
1 58584U 23198A   26191.19028483  .00000186  00000+0  00000+0 0  9990
2 58584  63.2187 151.7914 6909064 267.3543  18.7503  2.00608615 18787
TIANMU-1 11             
1 58645U 23205A   26194.19782339  .00003218  00000+0  12323-3 0  9991
2 58645  97.3440 215.3497 0006750 270.9871  89.0595 15.27251680141492
TIANMU-1 12             
1 58646U 23205B   26194.23552838  .00003158  00000+0  12159-3 0  9996
2 58646  97.3430 215.1346 0005679 243.2696 116.7962 15.27082970141489
TIANMU-1 13             
1 58647U 23205C   26194.13790690  .00003628  00000+0  13930-3 0  9996
2 58647  97.3457 215.3178 0005595 220.7155 139.3667 15.27076019141469
TIANMU-1 14             
1 58648U 23205D   26194.18788411  .00003247  00000+0  12480-3 0  9996
2 58648  97.3393 214.5284 0006262 228.6204 131.4497 15.27119245141476
TIANMU-1 19             
1 58660U 23208A   26194.15611028  .00005151  00000+0  16950-3 0  9991
2 58660  97.4525 310.5976 0004380 206.0367 154.0655 15.31956904141307
TIANMU-1 20             
1 58661U 23208B   26194.17376416  .00005210  00000+0  16515-3 0  9996
2 58661  97.4466 311.2778 0006157 220.0913 139.9875 15.33146082141404
